{"type":"FeatureCollection","features":[{"type":"Feature","id":"Ago\u00e8-Nyiv\u00e9","properties":{"prefecture":"Ago\u00e8-Nyiv\u00e9","region":"Maritime"},"geometry":{"type":"Polygon","coordinates":[[[1.16473571,6.21225529],[1.16165846,6.20758051],[1.15256438,6.21498717],[1.0935212,6.22841937],[1.09756035,6.24562936],[1.09307637,6.26890384],[1.1429285,6.28743577],[1.16556941,6.30456787],[1.17539038,6.2970297],[1.19213572,6.29857581],[1.18906967,6.30833652],[1.20507145,6.3594561],[1.2263048,6.36158066],[1.23326151,6.35429818],[1.24892602,6.35345692],[1.25675526,6.30983169],[1.24900461,6.26738548],[1.25768289,6.25731155],[1.23553594,6.20618031],[1.20924156,6.20464777],[1.20798669,6.19410231],[1.16473571,6.21225529]]]}},{"type":"Feature","id":"Av\u00e9","properties":{"prefecture":"Av\u00e9","region":"Maritime"},"geometry":{"type":"Polygon","coordinates":[[[1.08248699,6.18579938],[1.06250231,6.22200134],[1.03661216,6.23708076],[1.01643994,6.26916538],[1.00685331,6.29538452],[1.00286101,6.33492626],[0.89313081,6.33469535],[0.88507155,6.3545526],[0.85538498,6.38664812],[0.83500443,6.39853093],[0.78851104,6.41026326],[0.78210696,6.43456997],[0.74875323,6.44586741],[0.74378654,6.48309898],[0.72692004,6.49009639],[0.71921659,6.50258812],[0.71569815,6.52304952],[0.72310813,6.52993715],[0.75340378,6.54032775],[0.82922469,6.59334166],[0.84244989,6.62460946],[0.8784751,6.6590371],[0.89473436,6.7109231],[0.92736027,6.68722198],[0.9465213,6.68307028],[0.96598242,6.65972537],[0.96802195,6.63718716],[0.98225938,6.63368943],[0.98445532,6.61521177],[0.9952465,6.61116967],[0.98016083,6.60058548],[0.97522632,6.5872448],[0.97262319,6.5767954],[0.98289299,6.56853083],[0.97625933,6.54889213],[0.98942985,6.54516182],[0.99761266,6.55090455],[1.01185485,6.52481458],[1.01846712,6.52837587],[1.0521265,6.49728705],[1.06017699,6.48672656],[1.05454919,6.47500093],[1.08098609,6.46477229],[1.0749275,6.44882325],[1.07704196,6.42379315],[1.09574613,6.4209066],[1.10014432,6.4146333],[1.09831497,6.39259027],[1.10334654,6.38695965],[1.09427833,6.38223574],[1.09776159,6.37653624],[1.04390634,6.39441894],[1.02932654,6.39126214],[1.03073749,6.38072088],[1.05126431,6.36408046],[1.03016541,6.34286765],[1.03180231,6.33271073],[1.01396695,6.33006574],[1.01635868,6.32549693],[1.04084858,6.32671349],[1.05687985,6.30681198],[1.08671156,6.29350488],[1.09756035,6.24562936],[1.08248699,6.18579938]]]}},{"type":"Feature","id":"Bas-Mono","properties":{"prefecture":"Bas-Mono","region":"Maritime"},"geometry":{"type":"Polygon","coordinates":[[[1.70881759,6.37696382],[1.65615332,6.36993189],[1.64704607,6.3607009],[1.60742822,6.36121069],[1.60527674,6.39047978],[1.57267269,6.45346575],[1.57149997,6.47570195],[1.57834117,6.48847488],[1.55824547,6.49485651],[1.52398299,6.56924203],[1.58442259,6.58759552],[1.650458,6.58058267],[1.65392177,6.57370891],[1.66240272,6.58097366],[1.66728225,6.57491589],[1.65727284,6.57258946],[1.66817534,6.56458912],[1.66940917,6.55523605],[1.68012861,6.56288975],[1.68591414,6.55072115],[1.69674998,6.55373801],[1.69262332,6.54562642],[1.70158205,6.53725734],[1.70224658,6.51272385],[1.69161201,6.51846281],[1.69387822,6.50276298],[1.70204992,6.50481157],[1.70441219,6.49726584],[1.71219357,6.50374421],[1.72039455,6.49117463],[1.72138708,6.50034469],[1.73034832,6.50143017],[1.72500449,6.48791541],[1.7380996,6.48503141],[1.73061033,6.47619973],[1.75193995,6.47421299],[1.7458237,6.4626385],[1.75797649,6.45980624],[1.75520659,6.44415054],[1.77867787,6.4256218],[1.77112408,6.42444896],[1.76357536,6.4120017],[1.76525093,6.4059877],[1.77574226,6.40645939],[1.76743804,6.3957918],[1.77361535,6.3860559],[1.70995194,6.39002272],[1.70881759,6.37696382]]]}},{"type":"Feature","id":"Golfe","properties":{"prefecture":"Golfe","region":"Maritime"},"geometry":{"type":"Polygon","coordinates":[[[1.23825051,6.1258034],[1.19816457,6.11177299],[1.19766524,6.167894],[1.08248805,6.16799486],[1.0935212,6.22841937],[1.15256438,6.21498717],[1.16165846,6.20758051],[1.16473571,6.21225529],[1.18999983,6.20567159],[1.20798669,6.19410231],[1.20924156,6.20464777],[1.23553594,6.20618031],[1.25768087,6.25730769],[1.28136775,6.23858643],[1.28634664,6.21733557],[1.29522792,6.21576817],[1.30891949,6.19464161],[1.3284637,6.20353236],[1.35251103,6.19806908],[1.38386342,6.20688616],[1.38550248,6.17802646],[1.29504785,6.14890844],[1.29026092,6.13745671],[1.29003059,6.14484608],[1.28009551,6.14058617],[1.29199863,6.13393204],[1.23825051,6.1258034]]]}},{"type":"Feature","id":"Lacs","properties":{"prefecture":"Lacs","region":"Maritime"},"geometry":{"type":"Polygon","coordinates":[[[1.51851422,6.22928802],[1.58029074,6.24585377],[1.58321729,6.2529664],[1.56795947,6.26342084],[1.56176424,6.28516462],[1.5863098,6.29653838],[1.59913024,6.31097165],[1.59385701,6.35250967],[1.60742822,6.36121069],[1.64704607,6.3607009],[1.65615332,6.36993189],[1.70881759,6.37696382],[1.70995194,6.39002272],[1.78465989,6.38267386],[1.78669816,6.35076216],[1.77976648,6.3440687],[1.79620596,6.32298629],[1.79535334,6.31142123],[1.78776706,6.3080446],[1.8076344,6.28960567],[1.80391683,6.28414881],[1.80053511,6.2875174],[1.78969159,6.28018087],[1.78195752,6.28814705],[1.77092893,6.28371708],[1.76944773,6.27810952],[1.77483825,6.27757893],[1.76716748,6.27773353],[1.76715785,6.27289159],[1.74698343,6.27298656],[1.73105213,6.26327968],[1.66424328,6.25292912],[1.644542,6.24433599],[1.63561634,6.24774295],[1.63589585,6.23600245],[1.38550311,6.1780194],[1.38284663,6.20130301],[1.39286511,6.23598348],[1.39136427,6.27354698],[1.45191662,6.22386679],[1.51851422,6.22928802]]]}},{"type":"Feature","id":"Vo","properties":{"prefecture":"Vo","region":"Maritime"},"geometry":{"type":"Polygon","coordinates":[[[1.45191662,6.22386679],[1.39136427,6.27354698],[1.37865639,6.29259835],[1.38692016,6.30624209],[1.37995688,6.31079035],[1.38164898,6.32650658],[1.37514132,6.33254928],[1.38449635,6.3780384],[1.36765806,6.39874342],[1.36806542,6.42894226],[1.37392025,6.44098321],[1.36610033,6.449777],[1.38418365,6.46226496],[1.4419486,6.56052596],[1.52398299,6.56924203],[1.55824547,6.49485651],[1.57834117,6.48847488],[1.57149997,6.47570195],[1.5726728,6.4534653],[1.60527674,6.39047978],[1.60643653,6.35704564],[1.59353427,6.34976952],[1.59913024,6.31097165],[1.5863098,6.29653838],[1.56176424,6.28516462],[1.56795947,6.26342084],[1.58321729,6.2529664],[1.58029074,6.24585377],[1.51851422,6.22928802],[1.45191662,6.22386679]]]}},{"type":"Feature","id":"Yoto","properties":{"prefecture":"Yoto","region":"Maritime"},"geometry":{"type":"Polygon","coordinates":[[[1.52398299,6.56924203],[1.4419486,6.56052596],[1.38418365,6.46226496],[1.36273319,6.45079533],[1.33872208,6.50463987],[1.30506332,6.53960499],[1.3103971,6.55810685],[1.29706246,6.59432902],[1.28974943,6.59789867],[1.28877433,6.60925672],[1.29478732,6.61461128],[1.29185218,6.63268504],[1.30621965,6.67174124],[1.30286402,6.68435613],[1.2900581,6.68334136],[1.26261986,6.69822157],[1.25880627,6.69460429],[1.25136957,6.70336197],[1.24615758,6.69993506],[1.24430917,6.71234776],[1.23951017,6.70892082],[1.22599974,6.71935918],[1.23292796,6.72703806],[1.24176298,6.72621301],[1.24391439,6.73339047],[1.23754407,6.74128904],[1.30444789,6.805269],[1.39526558,6.85675341],[1.43661829,6.85820475],[1.48055064,6.8476406],[1.50293523,6.87186505],[1.57649128,6.90774172],[1.60476862,6.90612777],[1.60659399,6.87879351],[1.59718841,6.86839325],[1.59799404,6.83045089],[1.61249088,6.82619614],[1.60212911,6.81847805],[1.59413233,6.79964987],[1.60963399,6.79506932],[1.61436968,6.78753728],[1.60879522,6.77050516],[1.62543586,6.76216654],[1.61586015,6.75316153],[1.62271246,6.73767578],[1.60326627,6.73210862],[1.59726557,6.72031736],[1.5976977,6.72750457],[1.59130719,6.72839142],[1.58845626,6.71051445],[1.59299358,6.70267191],[1.57454824,6.68837089],[1.58600467,6.68534109],[1.58773701,6.67377662],[1.59480651,6.67591107],[1.60682137,6.66386723],[1.60354356,6.65637435],[1.6147746,6.64939352],[1.61110828,6.64331945],[1.60133439,6.64378795],[1.60640358,6.63166848],[1.60297606,6.62453483],[1.61138197,6.62530243],[1.60994324,6.61206717],[1.62295776,6.60098013],[1.6357899,6.59969477],[1.64646628,6.58062189],[1.58442259,6.58759552],[1.52398299,6.56924203]]]}},{"type":"Feature","id":"Zio","properties":{"prefecture":"Zio","region":"Maritime"},"geometry":{"type":"MultiPolygon","coordinates":[[[[1.09307637,6.26890384],[1.08671156,6.29350488],[1.05687985,6.30681198],[1.04084858,6.32671349],[1.01635868,6.32549693],[1.01396695,6.33006574],[1.03180231,6.33271073],[1.03016541,6.34286765],[1.05126431,6.36408046],[1.03073749,6.38072088],[1.02932654,6.39126214],[1.04390634,6.39441894],[1.09776159,6.37653624],[1.09427833,6.38223574],[1.10334654,6.38695965],[1.09831497,6.39259027],[1.10014432,6.4146333],[1.09574613,6.4209066],[1.07704196,6.42379315],[1.0749275,6.44882325],[1.08098609,6.46477229],[1.05454919,6.47500093],[1.06017699,6.48672656],[1.0521265,6.49728705],[1.01846712,6.52837587],[1.01185485,6.52481458],[0.99761266,6.55090455],[0.98942985,6.54516182],[0.97625933,6.54889213],[0.98289299,6.56853083],[0.97262319,6.5767954],[0.97522632,6.5872448],[0.98016083,6.60058548],[0.9952465,6.61116967],[0.98445532,6.61521177],[0.98225938,6.63368943],[0.96802195,6.63718716],[0.96598242,6.65972537],[0.95155998,6.67915735],[0.92736027,6.68722198],[0.89473436,6.7109231],[0.89674199,6.74999992],[0.88678748,6.77356538],[0.8893812,6.81849975],[0.88388893,6.83567345],[1.11463666,6.82709545],[1.10395629,6.81251965],[1.12085564,6.81323139],[1.16342985,6.7807262],[1.1859387,6.77314594],[1.23012512,6.73655928],[1.24055299,6.73740857],[1.24176298,6.72621301],[1.23292796,6.72703806],[1.22599974,6.71935918],[1.23951017,6.70892082],[1.24430917,6.71234776],[1.24615758,6.69993506],[1.25136957,6.70336197],[1.25880627,6.69460429],[1.26261986,6.69822157],[1.2900581,6.68334136],[1.30286402,6.68435613],[1.30621965,6.67174124],[1.29185218,6.63268504],[1.29478732,6.61461128],[1.28877433,6.60925672],[1.3103971,6.55810685],[1.30506332,6.53960499],[1.33872208,6.50463987],[1.35529134,6.45953476],[1.37392025,6.44098321],[1.36806542,6.42894226],[1.36765806,6.39874342],[1.38449635,6.3780384],[1.37514132,6.33254928],[1.38164898,6.32650658],[1.37995688,6.31079035],[1.38692016,6.30624209],[1.37865639,6.29259835],[1.39265415,6.26190171],[1.39286511,6.23598348],[1.38386342,6.20688616],[1.35251103,6.19806908],[1.3284637,6.20353236],[1.30891949,6.19464161],[1.29522792,6.21576817],[1.28634664,6.21733557],[1.28136775,6.23858643],[1.25139842,6.26158092],[1.25675526,6.30983169],[1.24892602,6.35345692],[1.23326151,6.35429818],[1.2263048,6.36158066],[1.20507145,6.3594561],[1.18906967,6.30833652],[1.19213572,6.29857581],[1.17539038,6.2970297],[1.16556941,6.30456787],[1.1429285,6.28743577],[1.09307637,6.26890384]]],[[[0.8838883,6.83567525],[0.88383859,6.83581685],[0.88387726,6.8358164],[0.8838883,6.83567525]]]]}},{"type":"Feature","id":"Agou","properties":{"prefecture":"Agou","region":"Plateaux"},"geometry":{"type":"MultiPolygon","coordinates":[[[[0.83516978,6.60347655],[0.81381788,6.57780736],[0.71569009,6.5230441],[0.71684658,6.53760718],[0.74567414,6.56163967],[0.7393792,6.58369119],[0.72672949,6.59318977],[0.70814298,6.58714646],[0.68745133,6.59314027],[0.68449964,6.59746417],[0.69204127,6.59902971],[0.6733476,6.61424951],[0.66303949,6.60564356],[0.63692305,6.63324383],[0.64751763,6.68783023],[0.64069977,6.69851802],[0.64798887,6.71222187],[0.64400799,6.72602799],[0.65034137,6.73711429],[0.62821628,6.74817494],[0.66741701,6.77116698],[0.67645438,6.80627991],[0.64860767,6.83936659],[0.64706388,6.85295327],[0.65976133,6.86781215],[0.71299185,6.8644696],[0.72892397,6.8968098],[0.7369172,6.94889314],[0.7316517,6.96326474],[0.74124205,6.99324416],[0.77081752,7.00525556],[0.79793836,6.9919831],[0.79570202,6.97864945],[0.80796295,6.93356813],[0.82071082,6.92084339],[0.81700961,6.89398913],[0.82634293,6.88622173],[0.82383546,6.88129779],[0.84885525,6.89309794],[0.88728345,6.89928116],[0.88357505,6.83967981],[0.8893812,6.81849975],[0.88678748,6.77356538],[0.89674199,6.74999992],[0.8936276,6.7391823],[0.89471039,6.70786942],[0.8784751,6.6590371],[0.84244989,6.62460946],[0.83516978,6.60347655]]],[[[0.89480893,6.71089179],[0.89480831,6.7108807],[0.89473436,6.7109231],[0.89480893,6.71089179]]]]}},{"type":"Feature","id":"Ak\u00e9bou","properties":{"prefecture":"Ak\u00e9bou","region":"Plateaux"},"geometry":{"type":"Polygon","coordinates":[[[0.86013351,7.6677276],[0.8677589,7.66326405],[0.86588427,7.65713276],[0.82820544,7.63008557],[0.7712427,7.63614093],[0.74675265,7.62613779],[0.71017584,7.62674303],[0.67571744,7.63000998],[0.65997921,7.63964383],[0.66074599,7.65905656],[0.65156043,7.6880287],[0.63523073,7.71568558],[0.62219464,7.71991659],[0.61172087,7.7535528],[0.63105653,7.76810193],[0.62887994,7.79339561],[0.61737814,7.79639702],[0.61940063,7.83838289],[0.62735822,7.86332486],[0.61972621,7.90421108],[0.67755743,7.90275217],[0.70221068,7.93146387],[0.76151262,7.96384152],[0.80562137,7.9702414],[0.82530745,7.96244999],[0.83961911,7.9750534],[0.85344562,7.96385978],[0.88226258,7.96322534],[0.90201467,7.97506731],[0.93958136,7.97428179],[0.96471615,7.98649087],[0.97315717,7.97912336],[1.01696694,7.97088313],[1.04073924,7.9529781],[1.04855569,7.90218386],[1.07403339,7.88164874],[1.08010367,7.86036554],[1.04519117,7.8688813],[1.04152038,7.87728435],[0.98835611,7.86889115],[0.97062869,7.85816383],[0.96991243,7.86245477],[0.94039888,7.86057174],[0.93260962,7.86629299],[0.91130089,7.85592327],[0.8960785,7.8292586],[0.89988086,7.81985216],[0.89267966,7.800028],[0.88510173,7.71427845],[0.86013351,7.6677276]]]}},{"type":"Feature","id":"Amou","properties":{"prefecture":"Amou","region":"Plateaux"},"geometry":{"type":"Polygon","coordinates":[[[1.06248636,7.27314072],[1.06104296,7.24504861],[1.03552541,7.19571506],[1.00807363,7.25158013],[0.99779136,7.25440216],[0.98939662,7.29063735],[0.97652961,7.30004764],[0.95105747,7.29958133],[0.923313,7.28845701],[0.87926392,7.3038518],[0.80689097,7.28724914],[0.7844032,7.28897486],[0.79122762,7.32148293],[0.81806531,7.32775005],[0.82982161,7.3486878],[0.83794976,7.37355882],[0.83194188,7.39509419],[0.8525267,7.41680916],[0.85848461,7.44090604],[0.89106294,7.47641241],[0.97100685,7.51870126],[0.98299768,7.53715543],[0.99641663,7.54091943],[1.00397156,7.55625868],[1.00720555,7.57311271],[0.92379611,7.59764769],[0.90273875,7.62411042],[0.90221298,7.63800756],[0.86840588,7.64956024],[0.86866384,7.66145694],[0.85997594,7.66648857],[0.87751863,7.69262617],[0.8902944,7.73494532],[0.89267966,7.800028],[0.89988086,7.81985216],[0.8960785,7.8292586],[0.91130089,7.85592327],[0.93260962,7.86629299],[0.94039888,7.86057174],[0.96991243,7.86245477],[0.97062869,7.85816383],[0.98835611,7.86889115],[1.04152038,7.87728435],[1.04519117,7.8688813],[1.08580281,7.85727833],[1.08231073,7.83575164],[1.0873682,7.83346669],[1.10145385,7.77079378],[1.1066258,7.7163705],[1.15013268,7.63762603],[1.14173299,7.5627274],[1.11926846,7.55700843],[1.11171761,7.53787793],[1.12586451,7.50604927],[1.14146103,7.50154371],[1.15436593,7.39835371],[1.13339933,7.35334431],[1.11649305,7.34180768],[1.07815863,7.33163642],[1.06248636,7.27314072]]]}},{"type":"Feature","id":"Ani\u00e9","properties":{"prefecture":"Ani\u00e9","region":"Plateaux"},"geometry":{"type":"Polygon","coordinates":[[[1.63430062,7.81153437],[1.63048606,7.64109915],[1.640094,7.63624074],[1.64828784,7.61057104],[1.63590293,7.48224202],[1.59185518,7.48438649],[1.53939159,7.5057342],[1.5169373,7.50361724],[1.50289012,7.49197219],[1.44867869,7.48701514],[1.4387509,7.44566721],[1.4305128,7.4372891],[1.40700631,7.46221806],[1.40338136,7.4818287],[1.38319965,7.48783765],[1.37664995,7.49610209],[1.38427927,7.50839091],[1.37902185,7.52093864],[1.33832731,7.53037683],[1.3362399,7.54119072],[1.34833178,7.54492768],[1.34825925,7.55941133],[1.33040932,7.55747101],[1.30669448,7.57094484],[1.31598087,7.59861053],[1.28465328,7.60404673],[1.28374277,7.61388365],[1.2946233,7.6220956],[1.29888888,7.63767935],[1.27897625,7.67315937],[1.25619095,7.68252743],[1.19328757,7.67937117],[1.18966783,7.722252],[1.1735405,7.7395878],[1.15147539,7.73660409],[1.14454614,7.70990643],[1.11320981,7.70704887],[1.10811142,7.71361457],[1.10145385,7.77079378],[1.0873682,7.83346669],[1.08231073,7.83575164],[1.08664572,7.85523393],[1.07403339,7.88164874],[1.04855569,7.90218386],[1.04613522,7.94327794],[1.0398624,7.94583769],[1.03806301,7.95654419],[1.1520294,7.97362314],[1.15215243,7.9084496],[1.16586784,7.89239483],[1.18651172,7.87791879],[1.26566364,7.8586353],[1.35023841,7.81240524],[1.35072352,7.7982686],[1.36965425,7.79693928],[1.4197959,7.77537145],[1.47048984,7.78255628],[1.48030712,7.87613112],[1.49321224,7.89429513],[1.53744583,7.90980501],[1.629511,7.91716261],[1.62449394,7.83714096],[1.63430062,7.81153437]]]}},{"type":"Feature","id":"Danyi","properties":{"prefecture":"Danyi","region":"Plateaux"},"geometry":{"type":"Polygon","coordinates":[[[0.71429377,7.17152648],[0.69805387,7.11914305],[0.63477821,7.11377861],[0.61226697,7.10492304],[0.59664913,7.11431977],[0.58844087,7.10916561],[0.59691384,7.13405691],[0.60566481,7.14200199],[0.60545571,7.1541034],[0.617057,7.16318561],[0.61874557,7.18422516],[0.62880796,7.18978514],[0.64180862,7.24288772],[0.64544796,7.2921073],[0.65179556,7.29252979],[0.65091566,7.30462855],[0.65818336,7.31371214],[0.64169137,7.37366427],[0.67978214,7.38313402],[0.72739477,7.37832106],[0.76311132,7.3927253],[0.7686976,7.38770418],[0.79021164,7.39304517],[0.79499102,7.38721819],[0.80641187,7.38932582],[0.80684634,7.39465688],[0.83194188,7.39509419],[0.83794976,7.37355882],[0.82982161,7.3486878],[0.81806531,7.32775005],[0.79122762,7.32148293],[0.77405463,7.26593038],[0.71429377,7.17152648]]]}},{"type":"Feature","id":"Est-Mono","properties":{"prefecture":"Est-Mono","region":"Plateaux"},"geometry":{"type":"Polygon","coordinates":[[[1.47048984,7.78255628],[1.4197959,7.77537145],[1.36965425,7.79693928],[1.35072352,7.7982686],[1.35229305,7.81065507],[1.31228602,7.83608152],[1.26566364,7.8586353],[1.18651172,7.87791879],[1.15313248,7.90563887],[1.1520294,7.97362314],[1.17588773,7.98001086],[1.1899941,7.99507515],[1.23069937,8.01368856],[1.23309656,8.03124594],[1.24697103,8.03413604],[1.26598061,8.07507397],[1.25938545,8.09657654],[1.26783791,8.10683369],[1.25979589,8.11303075],[1.26575561,8.12344758],[1.26286316,8.14814726],[1.27083086,8.15656115],[1.2635977,8.19700909],[1.26913994,8.20784988],[1.25495389,8.21946959],[1.25673496,8.22816558],[1.24835233,8.24196656],[1.25501477,8.240649],[1.26115777,8.24841923],[1.23328756,8.30922585],[1.24349128,8.34707272],[1.23783814,8.35790303],[1.2515407,8.37135092],[1.36237222,8.36594833],[1.61985434,8.36753267],[1.62435886,8.35731282],[1.61148052,8.33346461],[1.62300669,8.31925872],[1.6321755,8.23124417],[1.6357756,8.13912153],[1.629511,7.91716261],[1.53744583,7.90980501],[1.49321224,7.89429513],[1.48030712,7.87613112],[1.47048984,7.78255628]]]}},{"type":"Feature","id":"Haho","properties":{"prefecture":"Haho","region":"Plateaux"},"geometry":{"type":"Polygon","coordinates":[[[1.43661829,6.85820475],[1.39526558,6.85675341],[1.30444789,6.805269],[1.2354469,6.73472958],[1.12085564,6.81323139],[1.10395629,6.81251965],[1.11498292,6.82360363],[1.10885058,6.82889552],[0.88388844,6.83567345],[0.88728525,6.8992962],[0.96805591,6.91064629],[1.01284341,6.93314617],[1.04315958,6.93676415],[1.02687875,6.95237061],[1.00782389,6.9460257],[0.99408267,6.95454365],[0.98473249,7.01681972],[0.9674089,7.03234331],[0.96080924,7.08528911],[0.93751673,7.12411702],[0.93922955,7.14351726],[0.92806907,7.16989363],[0.93387082,7.21034016],[0.93187272,7.26366812],[0.95782251,7.29912746],[0.97652961,7.30004764],[0.98939662,7.29063735],[0.99779136,7.25440216],[1.00807363,7.25158013],[1.03573203,7.19354526],[1.06472295,7.17511513],[1.10885338,7.21822788],[1.13665989,7.23436523],[1.1683651,7.23950152],[1.24786287,7.23133735],[1.27927828,7.2196223],[1.33072284,7.22002953],[1.34416074,7.22582497],[1.36078923,7.25798358],[1.38355925,7.26240785],[1.42020952,7.28380895],[1.45243921,7.28845531],[1.47289118,7.29864122],[1.45292998,7.23652473],[1.46839295,7.22475518],[1.48357488,7.19363464],[1.4760686,7.18748748],[1.45054719,7.18981139],[1.44136829,7.18115833],[1.44136554,7.12885702],[1.46155748,7.12218511],[1.46389041,7.10011854],[1.4995848,7.10744452],[1.50784172,7.09170179],[1.57642323,7.0633635],[1.53392102,7.01955374],[1.53579758,7.01430618],[1.5532122,7.0134066],[1.56000513,6.9721045],[1.58027284,6.94003473],[1.58244266,6.9103753],[1.50293523,6.87186505],[1.48055064,6.8476406],[1.43661829,6.85820475]]]}},{"type":"Feature","id":"Kloto","properties":{"prefecture":"Kloto","region":"Plateaux"},"geometry":{"type":"Polygon","coordinates":[[[0.58011034,6.76324416],[0.56640817,6.78782311],[0.56777061,6.80213272],[0.57978584,6.80209182],[0.57926731,6.80670898],[0.56799606,6.8104583],[0.56418974,6.82409068],[0.5476491,6.83415236],[0.53967505,6.82600209],[0.53166869,6.8289871],[0.53065495,6.85763736],[0.54202837,6.86033063],[0.54295059,6.86587395],[0.53491911,6.87747773],[0.55544474,6.88393652],[0.56578943,6.91876976],[0.55747231,6.9304047],[0.52300667,6.94330393],[0.52155369,6.97561924],[0.53605323,6.97922912],[0.55327664,6.99374682],[0.57012578,6.9975186],[0.57783686,6.99226247],[0.594561,7.00329713],[0.59244488,7.01060153],[0.60413262,7.02493079],[0.59733364,7.05991723],[0.61300241,7.08677765],[0.61227298,7.10488066],[0.63477821,7.11377861],[0.70138089,7.12043092],[0.69981962,7.09929449],[0.68454127,7.08194338],[0.68596994,7.07198342],[0.71264516,7.02742657],[0.75411575,7.00042142],[0.74124205,6.99324416],[0.7316517,6.96326474],[0.7369172,6.94889314],[0.7254627,6.88438507],[0.71299185,6.8644696],[0.65976133,6.86781215],[0.64903048,6.85688058],[0.64860767,6.83936659],[0.67645438,6.80627991],[0.66741701,6.77116698],[0.62627616,6.74760389],[0.61873434,6.75513874],[0.60592555,6.75000787],[0.58011034,6.76324416]]]}},{"type":"Feature","id":"Kp\u00e9l\u00e9","properties":{"prefecture":"Kp\u00e9l\u00e9","region":"Plateaux"},"geometry":{"type":"Polygon","coordinates":[[[0.98167202,7.0226345],[0.99408267,6.95454365],[1.00782389,6.9460257],[1.02687875,6.95237061],[1.04315958,6.93676415],[1.04039489,6.93314617],[1.01284341,6.93314617],[0.96805591,6.91064629],[0.84885525,6.89309794],[0.82383546,6.88129779],[0.82634293,6.88622173],[0.81700961,6.89398913],[0.82071082,6.92084339],[0.80796295,6.93356813],[0.79570202,6.97864945],[0.79793836,6.9919831],[0.78182865,6.99645226],[0.77742129,7.00505077],[0.75411575,7.00042142],[0.70868767,7.03173824],[0.68454127,7.08194338],[0.69324844,7.08648034],[0.7013943,7.10449625],[0.69779846,7.13646622],[0.7844032,7.28897486],[0.80689097,7.28724914],[0.87926392,7.3038518],[0.923313,7.28845701],[0.95105747,7.29958133],[0.95476921,7.30023902],[0.95796586,7.29911531],[0.93187272,7.26366812],[0.93387082,7.21034016],[0.92806907,7.16989363],[0.93922955,7.14351726],[0.94053163,7.11310114],[0.96080924,7.08528911],[0.9674089,7.03234331],[0.98167202,7.0226345]]]}},{"type":"Feature","id":"Moyen-Mono","properties":{"prefecture":"Moyen-Mono","region":"Plateaux"},"geometry":{"type":"Polygon","coordinates":[[[1.63246781,7.40584113],[1.63303986,7.00147811],[1.55741631,7.00149297],[1.55208624,7.01558059],[1.53579758,7.01430618],[1.53392102,7.01955374],[1.57642323,7.0633635],[1.50784172,7.09170179],[1.4995848,7.10744452],[1.4616385,7.10124302],[1.46636747,7.11226294],[1.46155748,7.12218511],[1.44136554,7.12885702],[1.4405426,7.17823469],[1.45054719,7.18981139],[1.4760686,7.18748748],[1.48357488,7.19363464],[1.46839295,7.22475518],[1.45292998,7.23652473],[1.47289118,7.29864122],[1.52519184,7.32102956],[1.63246781,7.40584113]]]}},{"type":"Feature","id":"Ogou","properties":{"prefecture":"Ogou","region":"Plateaux"},"geometry":{"type":"Polygon","coordinates":[[[1.4387509,7.44566721],[1.44867869,7.48701514],[1.50289012,7.49197219],[1.5169373,7.50361724],[1.53939159,7.5057342],[1.59185518,7.48438649],[1.63590285,7.48226573],[1.63246781,7.40584113],[1.59860788,7.38116475],[1.58599115,7.36440036],[1.51488175,7.3149221],[1.36078923,7.25798358],[1.33837963,7.22180617],[1.27927828,7.2196223],[1.24786287,7.23133735],[1.15838808,7.23888591],[1.12188516,7.22712495],[1.06472295,7.17511513],[1.03573203,7.19354526],[1.06104296,7.24504861],[1.07602358,7.32837934],[1.13339933,7.35334431],[1.15436593,7.39835371],[1.14146103,7.50154371],[1.12586451,7.50604927],[1.11171761,7.53787793],[1.11926846,7.55700843],[1.14173299,7.5627274],[1.15137665,7.62544468],[1.14049481,7.65974061],[1.11321672,7.70705015],[1.1453451,7.71043837],[1.15393885,7.73846592],[1.1735405,7.7395878],[1.18460326,7.73185053],[1.19139891,7.71620106],[1.19328757,7.67937117],[1.25619095,7.68252743],[1.27897625,7.67315937],[1.29888888,7.63767935],[1.2946233,7.6220956],[1.28374277,7.61388365],[1.28465328,7.60404673],[1.29998627,7.59758005],[1.30939867,7.60309229],[1.3171325,7.59609527],[1.30720353,7.5836233],[1.30669448,7.57094484],[1.33040932,7.55747101],[1.34825925,7.55941133],[1.34833178,7.54492768],[1.3362399,7.54119072],[1.33832731,7.53037683],[1.37902185,7.52093864],[1.38427927,7.50839091],[1.37535444,7.50055766],[1.3790251,7.49286816],[1.40338136,7.4818287],[1.40700631,7.46221806],[1.42558276,7.44097204],[1.4305128,7.4372891],[1.4387509,7.44566721]]]}},{"type":"Feature","id":"Wawa","properties":{"prefecture":"Wawa","region":"Plateaux"},"geometry":{"type":"Polygon","coordinates":[[[0.64453767,7.40129544],[0.6291625,7.40032293],[0.62545827,7.40947726],[0.61477744,7.41252341],[0.598414,7.40066228],[0.56778911,7.39336363],[0.53980362,7.41779457],[0.53077182,7.45685325],[0.52033256,7.45441731],[0.50917487,7.46402138],[0.52712222,7.47875881],[0.51725479,7.51454409],[0.52749736,7.58475061],[0.52644175,7.5905922],[0.51746395,7.59228308],[0.58591728,7.62356713],[0.5835102,7.67611814],[0.58936827,7.70286721],[0.60875706,7.7106113],[0.62644046,7.7038708],[0.62219464,7.71991659],[0.63523073,7.71568558],[0.65156043,7.6880287],[0.66074599,7.65905656],[0.65997921,7.63964383],[0.67073689,7.63172517],[0.74675265,7.62613779],[0.7712427,7.63614093],[0.79187763,7.63619543],[0.82820544,7.63008557],[0.86588427,7.65713276],[0.86840588,7.64956024],[0.90221298,7.63800756],[0.90273875,7.62411042],[0.92379611,7.59764769],[1.00720555,7.57311271],[0.99995623,7.54563274],[0.98299768,7.53715543],[0.97100685,7.51870126],[0.89106294,7.47641241],[0.85848461,7.44090604],[0.8525267,7.41680916],[0.83194188,7.39509419],[0.80684634,7.39465688],[0.80641187,7.38932582],[0.79499102,7.38721819],[0.79021164,7.39304517],[0.7686976,7.38770418],[0.76311132,7.3927253],[0.72739477,7.37832106],[0.67978214,7.38313402],[0.65386676,7.37612073],[0.64607889,7.38427763],[0.64453767,7.40129544]]]}},{"type":"Feature","id":"Blitta","properties":{"prefecture":"Blitta","region":"Centrale"},"geometry":{"type":"Polygon","coordinates":[[[1.02529506,7.96150304],[1.01696694,7.97088313],[0.97315717,7.97912336],[0.96471615,7.98649087],[0.93958136,7.97428179],[0.90201467,7.97506731],[0.88226258,7.96322534],[0.85344562,7.96385978],[0.83400486,7.97461648],[0.82530745,7.96244999],[0.80562137,7.9702414],[0.74602718,7.95765539],[0.69637039,7.92691766],[0.67755743,7.90275217],[0.61972621,7.90421108],[0.61324524,7.94497486],[0.59723525,7.9865733],[0.60643025,7.98574438],[0.60604819,8.00001071],[0.5985179,8.00730008],[0.60217375,8.02101115],[0.59414551,8.04047303],[0.5988867,8.05491467],[0.5913411,8.06191198],[0.58479935,8.09376282],[0.58613018,8.10408743],[0.59191247,8.10569225],[0.5914536,8.13912054],[0.6060571,8.13910348],[0.60930879,8.14513995],[0.6044662,8.17449445],[0.61175283,8.18116795],[0.61061632,8.18679548],[0.58935762,8.1944812],[0.58871654,8.20857393],[0.61749942,8.21821378],[0.6370347,8.2617583],[0.67021058,8.26217809],[0.68668275,8.2810809],[0.73102688,8.28696607],[0.73017005,8.3407163],[0.71041971,8.35175574],[0.70873307,8.38160968],[0.75686601,8.38170211],[0.79633985,8.41209228],[0.86824222,8.38478349],[0.89170671,8.3876885],[0.94101885,8.38122558],[0.95498625,8.37318991],[0.96364677,8.35098567],[0.9738359,8.37328746],[0.97159893,8.39134433],[0.99593793,8.39409507],[1.06095341,8.38268529],[1.08917699,8.38537886],[1.13326229,8.37182009],[1.16595369,8.36932446],[1.18344907,8.39160214],[1.2059673,8.39037228],[1.23057358,8.38786075],[1.23824681,8.374389],[1.25158549,8.37275339],[1.23783814,8.35790303],[1.24349128,8.34707272],[1.23328756,8.30922585],[1.26115777,8.24841923],[1.25501477,8.240649],[1.24835233,8.24196656],[1.25673496,8.22816558],[1.25495389,8.21946959],[1.26913994,8.20784988],[1.2635977,8.20017127],[1.26417098,8.18238343],[1.27167976,8.17132747],[1.27083086,8.15656115],[1.26136054,8.14179607],[1.26645461,8.13162114],[1.25979589,8.11303075],[1.26783791,8.10683369],[1.25938545,8.09657654],[1.26591743,8.08214357],[1.26119685,8.05832344],[1.24412592,8.03135925],[1.23309656,8.03124594],[1.23069937,8.01368856],[1.1899941,7.99507515],[1.17588773,7.98001086],[1.04899367,7.95492881],[1.02529506,7.96150304]]]}},{"type":"Feature","id":"M\u00f4","properties":{"prefecture":"M\u00f4","region":"Centrale"},"geometry":{"type":"Polygon","coordinates":[[[0.68006683,8.54892271],[0.63325001,8.53245547],[0.61496088,8.5123801],[0.59046336,8.51611904],[0.5831019,8.52625632],[0.57085064,8.52417333],[0.56340984,8.54563024],[0.53572818,8.55746502],[0.53169919,8.56919538],[0.51156682,8.56351986],[0.50990724,8.57166957],[0.49956168,8.57364349],[0.49198884,8.59683797],[0.4692627,8.59568129],[0.46704576,8.60837014],[0.38725026,8.74486914],[0.37347245,8.75451769],[0.40053325,8.75697347],[0.37778484,8.77197188],[0.37958511,8.79288068],[0.38992738,8.79062479],[0.39229795,8.79701624],[0.39816459,8.7896381],[0.39817908,8.79371235],[0.41830694,8.79259116],[0.42750134,8.7795519],[0.44078179,8.78835029],[0.43686688,8.79412192],[0.43035888,8.79047752],[0.43009346,8.79787301],[0.44278481,8.8021762],[0.44828871,8.81176809],[0.45976853,8.81006454],[0.46943035,8.79206727],[0.47157636,8.79956851],[0.49116902,8.80074249],[0.50003575,8.81468407],[0.49493891,8.82040127],[0.50102113,8.82886273],[0.49560782,8.83980767],[0.50878061,8.85566142],[0.5194333,8.85339635],[0.52163447,8.8741146],[0.53947905,8.86388527],[0.5566894,8.88537701],[0.5745243,8.87993911],[0.58404015,8.88706669],[0.57768164,8.90741705],[0.59970121,8.93129215],[0.60004196,8.94606696],[0.61557803,8.95130359],[0.626216,8.96893203],[0.62732239,8.9990914],[0.65222005,9.00162819],[0.65736731,8.99057591],[0.66573164,8.99366028],[0.67543963,9.01348805],[0.74305,8.92135649],[0.71699146,8.87229631],[0.71525841,8.82456109],[0.74455465,8.78541506],[0.83927064,8.76613904],[0.86562786,8.7539935],[0.84664177,8.73484104],[0.83348134,8.7053579],[0.79047297,8.64667303],[0.68006683,8.54892271]]]}},{"type":"Feature","id":"Sotouboua","properties":{"prefecture":"Sotouboua","region":"Centrale"},"geometry":{"type":"Polygon","coordinates":[[[1.0346481,8.38959934],[0.97159893,8.39134433],[0.9738359,8.37328746],[0.96364677,8.35098567],[0.95498625,8.37318991],[0.94101885,8.38122558],[0.89170671,8.3876885],[0.86824222,8.38478349],[0.79633985,8.41209228],[0.75686601,8.38170211],[0.70899115,8.38148099],[0.69874111,8.38877365],[0.70587228,8.39429537],[0.69340574,8.39474811],[0.69621979,8.40453202],[0.6515697,8.42249102],[0.65596621,8.45581626],[0.64472571,8.47598969],[0.64695574,8.49071661],[0.64049785,8.49735292],[0.62882063,8.49659017],[0.62992199,8.50803385],[0.61501885,8.51237675],[0.61931187,8.52109199],[0.63325001,8.53245547],[0.6859426,8.55122805],[0.74304271,8.60132442],[0.80747713,8.66758431],[0.84664177,8.73484104],[0.86562786,8.7539935],[0.83927064,8.76613904],[0.74455465,8.78541506],[0.71525841,8.82456109],[0.71699146,8.87229631],[0.74305,8.92135649],[0.67543963,9.01348805],[0.70101363,9.02303566],[0.7034446,9.03692774],[0.71320218,9.03580118],[0.72242604,9.05950244],[0.751438,9.05262626],[0.77552129,9.06573918],[0.78438648,9.03919617],[0.80437912,9.02100051],[0.81239938,9.02744326],[0.81746632,9.01446805],[0.88498777,8.99907951],[0.89526831,8.9868629],[0.8930619,8.97240122],[0.9041671,8.94843031],[0.9020661,8.93720718],[0.9135462,8.92094266],[0.95136227,8.90964907],[0.96580738,8.8948227],[0.96176921,8.86240451],[0.97443577,8.82130053],[1.00514469,8.80698788],[1.0104952,8.78799707],[1.02910294,8.78545439],[1.03630477,8.77609114],[1.05052054,8.7723538],[1.0523672,8.74810234],[1.0616207,8.75407474],[1.06760097,8.74571336],[1.06948932,8.75093137],[1.08058378,8.74790741],[1.09890208,8.75387981],[1.10711155,8.74588509],[1.12114913,8.75217183],[1.12293324,8.73602835],[1.13286687,8.73149314],[1.15741175,8.74088889],[1.1591552,8.74692234],[1.19782611,8.73883245],[1.21488492,8.6836018],[1.23338725,8.67301455],[1.23845727,8.67676283],[1.26370483,8.66819391],[1.26660846,8.65646146],[1.25910438,8.62503922],[1.26436763,8.58957832],[1.25365456,8.57570025],[1.25784632,8.56157166],[1.26853506,8.56062973],[1.26649571,8.54538798],[1.24422029,8.54660932],[1.24335162,8.53164457],[1.23343457,8.52405374],[1.25397095,8.4969545],[1.23445051,8.45612796],[1.22389024,8.45224237],[1.24587612,8.38490658],[1.18344907,8.39160214],[1.16595369,8.36932446],[1.13326229,8.37182009],[1.08917699,8.38537886],[1.06095341,8.38268529],[1.0346481,8.38959934]]]}},{"type":"Feature","id":"Tchamba","properties":{"prefecture":"Tchamba","region":"Centrale"},"geometry":{"type":"Polygon","coordinates":[[[1.41602622,8.36653737],[1.23824681,8.374389],[1.23511111,8.38088114],[1.24587612,8.38490658],[1.2462022,8.39623441],[1.23875431,8.39827988],[1.22389024,8.45224237],[1.23445051,8.45612796],[1.25397095,8.4969545],[1.23343457,8.52405374],[1.24335162,8.53164457],[1.24422029,8.54660932],[1.26649571,8.54538798],[1.26853506,8.56062973],[1.25784632,8.56157166],[1.25365456,8.57570025],[1.26436763,8.58957832],[1.25910438,8.62503922],[1.26660846,8.65646146],[1.26370483,8.66819391],[1.27019338,8.67587824],[1.26038291,8.68065839],[1.26410264,8.69454046],[1.25441661,8.70532382],[1.27668878,8.72231175],[1.27488562,8.74903475],[1.28222888,8.74452754],[1.28957225,8.75476429],[1.30311152,8.75682695],[1.29983829,8.76718254],[1.31475439,8.77176619],[1.30826505,8.79024852],[1.3281486,8.812062],[1.32095829,8.81977781],[1.32386463,8.83509081],[1.31804868,8.85553541],[1.32393869,8.86233446],[1.31536455,8.86893733],[1.31681792,8.87520159],[1.30610885,8.8797088],[1.32670854,8.88249611],[1.32441368,8.89502468],[1.34554172,8.90802841],[1.34716096,8.92192759],[1.34264792,8.92307353],[1.35542223,8.93353947],[1.35205952,8.93952735],[1.36995889,8.93349228],[1.37141406,8.95384626],[1.36644194,8.95758958],[1.38271905,8.99864535],[1.37605553,9.02222831],[1.38091484,9.04983018],[1.37568929,9.0544439],[1.38183764,9.06113762],[1.37661209,9.06522191],[1.38987875,9.0798595],[1.39609508,9.11204856],[1.41442928,9.13683487],[1.39396723,9.18770208],[1.39957971,9.20490994],[1.42102462,9.21726849],[1.44133822,9.23932569],[1.4414194,9.25585188],[1.45270528,9.27611726],[1.45381953,9.26586313],[1.51843023,9.19394814],[1.55843558,9.17257385],[1.56956919,9.14048052],[1.59723478,9.11070678],[1.62209571,9.04684755],[1.62575996,8.98809139],[1.61893296,8.96724749],[1.62011942,8.9299605],[1.62935789,8.89532048],[1.630481,8.74456948],[1.62257454,8.54445474],[1.64898147,8.49608358],[1.63881691,8.46732783],[1.62552836,8.45634078],[1.63125079,8.44468529],[1.62436172,8.43095404],[1.62885574,8.41855128],[1.62396815,8.38538387],[1.61472107,8.37526814],[1.61985434,8.36753267],[1.41602622,8.36653737]]]}},{"type":"Feature","id":"Tchaoudjo","properties":{"prefecture":"Tchaoudjo","region":"Centrale"},"geometry":{"type":"Polygon","coordinates":[[[1.14885665,8.7361512],[1.12483883,8.73424664],[1.12114913,8.75217183],[1.10711155,8.74588509],[1.09890208,8.75387981],[1.08058378,8.74790741],[1.06948932,8.75093137],[1.06760097,8.74571336],[1.0616207,8.75407474],[1.0523672,8.74810234],[1.05052054,8.7723538],[1.03630477,8.77609114],[1.02910294,8.78545439],[1.0104952,8.78799707],[1.00514469,8.80698788],[0.97443577,8.82130053],[0.96176921,8.86240451],[0.96580738,8.8948227],[0.95136227,8.90964907],[0.9135462,8.92094266],[0.9020661,8.93720718],[0.9041671,8.94843031],[0.8930619,8.97240122],[0.89526831,8.9868629],[0.8767244,9.00369237],[0.89319327,9.0035285],[0.91214234,9.01418094],[0.93118159,9.01097634],[0.96336214,9.02278099],[0.97268664,9.05417298],[0.99544855,9.05586992],[1.00482408,9.06305861],[0.98929327,9.10213333],[0.9814146,9.15827936],[1.01353708,9.20760041],[1.02640914,9.2494009],[1.05210133,9.27302046],[1.17156817,9.25183462],[1.18832904,9.2444614],[1.18860443,9.23002345],[1.19832595,9.21232009],[1.21488729,9.22779718],[1.22035163,9.22168602],[1.23625719,9.24890943],[1.25645895,9.26429638],[1.2846087,9.26461173],[1.30785549,9.24938325],[1.31927097,9.25054452],[1.34545622,9.2739475],[1.42122809,9.30812164],[1.4527075,9.27612191],[1.4414194,9.25585188],[1.44133822,9.23932569],[1.42102462,9.21726849],[1.39957971,9.20490994],[1.39396723,9.18770208],[1.41442928,9.13683487],[1.39609508,9.11204856],[1.38987875,9.0798595],[1.37661209,9.06522191],[1.38183764,9.06113762],[1.37568929,9.0544439],[1.38091484,9.04983018],[1.37605553,9.02222831],[1.38271905,8.99864535],[1.36644194,8.95758958],[1.37141406,8.95384626],[1.36995889,8.93349228],[1.35205952,8.93952735],[1.35542223,8.93353947],[1.34264792,8.92307353],[1.34716096,8.92192759],[1.34554172,8.90802841],[1.32441368,8.89502468],[1.32670854,8.88249611],[1.30610885,8.8797088],[1.31681792,8.87520159],[1.31536455,8.86893733],[1.32393869,8.86233446],[1.31804868,8.85553541],[1.32386463,8.83509081],[1.32095829,8.81977781],[1.3281486,8.812062],[1.30826505,8.79024852],[1.31475439,8.77176619],[1.29983829,8.76718254],[1.30311152,8.75682695],[1.28957225,8.75476429],[1.28222888,8.74452754],[1.27488562,8.74903475],[1.27668878,8.72231175],[1.25441661,8.70532382],[1.26410264,8.69454046],[1.26038291,8.68065839],[1.27019338,8.67587824],[1.26370483,8.66819391],[1.25270879,8.66904877],[1.21488492,8.6836018],[1.19782611,8.73883245],[1.1591552,8.74692234],[1.14885665,8.7361512]]]}},{"type":"Feature","id":"Assoli","properties":{"prefecture":"Assoli","region":"Kara"},"geometry":{"type":"Polygon","coordinates":[[[1.25265123,9.26235175],[1.23625719,9.24890943],[1.22164692,9.22285442],[1.21488729,9.22779718],[1.19832595,9.21232009],[1.18860443,9.23002345],[1.18832904,9.2444614],[1.17156817,9.25183462],[1.11771216,9.25818682],[1.06088901,9.27534668],[1.02640914,9.2494009],[1.01616287,9.29219313],[0.9973767,9.29827783],[0.96905137,9.33340823],[0.93772944,9.34012572],[0.94533661,9.37433423],[0.93865938,9.39397224],[0.95187048,9.40345286],[0.95127919,9.41069234],[0.96896967,9.43150361],[0.98667335,9.43096792],[1.03142847,9.42162642],[1.08562201,9.37536482],[1.10094977,9.37527853],[1.17569713,9.40220719],[1.20267306,9.43155889],[1.21684543,9.4387166],[1.27658217,9.43606191],[1.30977069,9.44217817],[1.33134859,9.46218533],[1.36423732,9.46068103],[1.37030462,9.43965523],[1.4000952,9.42405856],[1.39886149,9.3662713],[1.42122809,9.30812164],[1.34545622,9.2739475],[1.31927097,9.25054452],[1.30785549,9.24938325],[1.28196504,9.26516756],[1.25265123,9.26235175]]]}},{"type":"Feature","id":"Bassar","properties":{"prefecture":"Bassar","region":"Kara"},"geometry":{"type":"Polygon","coordinates":[[[0.75442726,9.05302054],[0.72242604,9.05950244],[0.71320218,9.03580118],[0.70530586,9.03884292],[0.70101363,9.02303566],[0.67646681,9.01465464],[0.66573164,8.99366028],[0.65337809,8.98967631],[0.65556578,8.99841533],[0.64655797,9.00278488],[0.62732239,8.9990914],[0.626216,8.96893203],[0.61557803,8.95130359],[0.60004196,8.94606696],[0.59970121,8.93129215],[0.57768164,8.90741705],[0.58404015,8.88706669],[0.5745243,8.87993911],[0.5566894,8.88537701],[0.53947905,8.86388527],[0.52486782,8.87459794],[0.51185102,8.90238016],[0.50876612,8.91779105],[0.51426624,8.93620926],[0.46627851,9.00462286],[0.47003446,9.0184592],[0.45570197,9.04589747],[0.4641013,9.08866463],[0.48532018,9.09954148],[0.47645135,9.14429802],[0.51159806,9.16397132],[0.53155237,9.21252042],[0.50570333,9.25510358],[0.53861301,9.30634827],[0.55245539,9.30404084],[0.55516155,9.31089226],[0.54520311,9.34043919],[0.56686717,9.40564321],[0.55664779,9.41202662],[0.64586587,9.46741368],[0.68521986,9.50586287],[0.68115465,9.53419648],[0.65925626,9.56867051],[0.66137202,9.5802675],[0.6682413,9.58618622],[0.68591493,9.58004834],[0.71710451,9.58990737],[0.73740101,9.58756975],[0.75966409,9.60086813],[0.77346583,9.59251429],[0.78658745,9.59405297],[0.80424425,9.60376912],[0.82087919,9.64043104],[0.84472707,9.63591024],[0.85764473,9.66149147],[0.87862042,9.67912536],[0.90117011,9.67360904],[0.90380536,9.66050658],[0.91992342,9.6586367],[0.91768058,9.64065918],[0.93128134,9.62242697],[0.94705108,9.63255446],[0.9672107,9.61340825],[0.98965184,9.60394791],[1.00099297,9.60592877],[1.0115022,9.59763836],[0.9913089,9.55028331],[0.99098917,9.52767276],[0.9845194,9.52141441],[0.98692458,9.47785832],[0.97325026,9.46242952],[0.96633268,9.425642],[0.93865938,9.39397224],[0.94533661,9.37433423],[0.93743496,9.34277221],[0.97865178,9.32614892],[0.9973767,9.29827783],[1.01616287,9.29219313],[1.02398344,9.27361989],[1.02640914,9.2494009],[1.0162021,9.21354991],[0.98059678,9.15307211],[0.98929327,9.10213333],[1.00482408,9.06305861],[0.99544855,9.05586992],[0.97268664,9.05417298],[0.96573221,9.02394577],[0.93118159,9.01097634],[0.9054088,9.01251463],[0.89319327,9.0035285],[0.8622823,9.00804391],[0.84810037,9.0035806],[0.81746632,9.01446805],[0.81239938,9.02744326],[0.80437912,9.02100051],[0.78438648,9.03919617],[0.77552129,9.06573918],[0.75442726,9.05302054]]]}},{"type":"Feature","id":"Binah","properties":{"prefecture":"Binah","region":"Kara"},"geometry":{"type":"Polygon","coordinates":[[[1.3382327,9.54803614],[1.35878099,9.500555],[1.35954443,9.4829036],[1.32686026,9.4931456],[1.30899055,9.51998107],[1.28936549,9.52546711],[1.27793475,9.52071652],[1.27379738,9.53143173],[1.26581584,9.52439832],[1.25506431,9.53133794],[1.25459992,9.55454247],[1.26890217,9.57337288],[1.27441079,9.59882153],[1.29491668,9.61909386],[1.28839264,9.64649104],[1.29565273,9.67736767],[1.22671847,9.71370188],[1.19159821,9.75638705],[1.20730008,9.77203742],[1.246942,9.86735318],[1.25365122,9.85736437],[1.26994088,9.86565484],[1.29832185,9.90325353],[1.30978623,9.96660647],[1.33357321,10.01182435],[1.35327524,10.00036417],[1.3537946,9.89797394],[1.36359809,9.80369773],[1.35905717,9.67675182],[1.36600944,9.66222952],[1.362484,9.60118316],[1.3382327,9.54803614]]]}},{"type":"Feature","id":"Dankpen","properties":{"prefecture":"Dankpen","region":"Kara"},"geometry":{"type":"Polygon","coordinates":[[[0.49160076,9.48552254],[0.44906053,9.49924822],[0.43780139,9.49409802],[0.41219586,9.50024822],[0.41515425,9.49647537],[0.38902736,9.49131514],[0.3596451,9.49892151],[0.34364898,9.48832849],[0.35070823,9.4751084],[0.33874769,9.45156655],[0.31261326,9.44604808],[0.26887371,9.424598],[0.24692887,9.43788959],[0.22879867,9.46472222],[0.22963848,9.48628079],[0.25502006,9.47755561],[0.27036737,9.47892083],[0.27541317,9.48764163],[0.28870878,9.48798628],[0.3113363,9.50548767],[0.29316546,9.52334589],[0.25576442,9.51904758],[0.24404609,9.52347037],[0.23566891,9.54812795],[0.24051635,9.57438257],[0.26691635,9.56674097],[0.28970231,9.57646326],[0.33606209,9.57877956],[0.3540178,9.5725168],[0.37403366,9.58032675],[0.38356218,9.59143699],[0.37146793,9.61488891],[0.37922087,9.630486],[0.37584447,9.65329012],[0.3691926,9.65215283],[0.36290774,9.67358093],[0.35109823,9.67584783],[0.35334934,9.69495779],[0.34569711,9.71590765],[0.31933697,9.72768094],[0.32977191,9.75816051],[0.32570346,9.77290453],[0.33590651,9.77971668],[0.33100372,9.79596635],[0.35794246,9.84913568],[0.35149608,9.88212189],[0.35453043,9.92049505],[0.36120746,9.93029001],[0.38746259,9.93889752],[0.38672293,9.9502935],[0.37050403,9.96373967],[0.35902933,9.98956162],[0.36390946,10.03418612],[0.40179576,10.01991258],[0.42705624,10.02789284],[0.4324167,10.01271689],[0.42632167,10.0101345],[0.43306311,9.9975915],[0.43030316,9.96947953],[0.45337156,9.9690974],[0.45251848,9.95762548],[0.46913352,9.95112359],[0.48658647,9.9578708],[0.53640869,9.95275286],[0.51574391,9.92292567],[0.53770088,9.917303],[0.54655684,9.89872687],[0.56642774,9.88733183],[0.60602997,9.89474443],[0.62153492,9.88509382],[0.62592723,9.89391095],[0.64506897,9.90184232],[0.65262376,9.88850694],[0.66184772,9.88947197],[0.67700215,9.89951836],[0.68141224,9.89653476],[0.67624862,9.87092024],[0.68104145,9.86111212],[0.70120068,9.85689987],[0.70698205,9.86108906],[0.74571327,9.84579753],[0.74851523,9.86294617],[0.76112113,9.85988612],[0.76126483,9.87337543],[0.77493929,9.88281963],[0.7733587,9.89795924],[0.79361893,9.90011177],[0.81028687,9.88224561],[0.82764845,9.88317178],[0.8387844,9.89214074],[0.84963293,9.88496556],[0.84167119,9.87797471],[0.85007084,9.86433676],[0.84767129,9.84849037],[0.83692251,9.84700056],[0.84111863,9.84385753],[0.83691907,9.83016671],[0.86660223,9.81486724],[0.85868525,9.79298957],[0.86293001,9.78305619],[0.85448439,9.76941036],[0.87228396,9.73929701],[0.86294895,9.72755829],[0.87862042,9.67912536],[0.85764473,9.66149147],[0.84472707,9.63591024],[0.82087919,9.64043104],[0.80424425,9.60376912],[0.78658745,9.59405297],[0.77346583,9.59251429],[0.75966409,9.60086813],[0.73740101,9.58756975],[0.71710451,9.58990737],[0.68591493,9.58004834],[0.6682413,9.58618622],[0.66137202,9.5802675],[0.65925626,9.56867051],[0.68115465,9.53419648],[0.68521986,9.50586287],[0.65828457,9.47691846],[0.55664779,9.41202662],[0.55475491,9.42302172],[0.5245692,9.43158631],[0.5193176,9.44002453],[0.50013492,9.43781621],[0.49450061,9.45192072],[0.50524203,9.46279028],[0.5028884,9.47454901],[0.49160076,9.48552254]]]}},{"type":"Feature","id":"Doufelgou","properties":{"prefecture":"Doufelgou","region":"Kara"},"geometry":{"type":"Polygon","coordinates":[[[1.03162945,9.65092594],[1.00657826,9.64939419],[0.98178465,9.6363635],[0.9583443,9.64646158],[0.94668719,9.64156889],[0.93080621,9.64816028],[0.92326471,9.64464214],[0.91699287,9.66140086],[0.90380536,9.66050658],[0.90117011,9.67360904],[0.87395096,9.68153479],[0.87623984,9.69923465],[0.86294895,9.72755829],[0.87228396,9.73929701],[0.8598271,9.75352478],[0.85424598,9.77288674],[0.86202402,9.77991316],[0.85868525,9.79298957],[0.86660223,9.81486724],[0.83691907,9.83016671],[0.84111863,9.84385753],[0.83692251,9.84700056],[0.84767129,9.84849037],[0.85007084,9.86433676],[0.84167119,9.87797471],[0.8815141,9.89010328],[0.88515892,9.87491006],[0.89898567,9.86545025],[0.9362153,9.86129462],[0.94263877,9.86644212],[0.96001085,9.86352995],[0.98645735,9.88445729],[1.00580292,9.87015701],[1.00844371,9.86010443],[1.04009936,9.85177994],[1.05730439,9.86323511],[1.09583135,9.93217846],[1.10825684,9.98252864],[1.10578162,9.99918969],[1.12436667,9.98869551],[1.13113084,9.99108958],[1.13425092,10.00229126],[1.14986683,10.00453108],[1.15601353,9.97964436],[1.17821996,10.00341969],[1.18827064,9.99885713],[1.1924238,10.00723565],[1.20240663,10.00973602],[1.21895546,10.04171512],[1.2267634,10.04063668],[1.22800938,10.03275589],[1.25088153,10.03466124],[1.26316702,10.02623868],[1.28277688,10.04136148],[1.33357321,10.01182435],[1.30978623,9.96660647],[1.29832185,9.90325353],[1.26994088,9.86565484],[1.25365122,9.85736437],[1.246942,9.86735318],[1.20730008,9.77203742],[1.17262662,9.74413186],[1.16829048,9.73141088],[1.14998438,9.71346592],[1.14475224,9.69436861],[1.12324013,9.6945681],[1.08696501,9.66118623],[1.07821347,9.65987927],[1.07240635,9.66641404],[1.06381836,9.6583273],[1.05514867,9.66821107],[1.03162945,9.65092594]]]}},{"type":"Feature","id":"K\u00e9ran","properties":{"prefecture":"K\u00e9ran","region":"Kara"},"geometry":{"type":"Polygon","coordinates":[[[1.08940975,10.15112356],[1.28277228,10.04135619],[1.26957027,10.0278746],[1.25088153,10.03466124],[1.23008595,10.03217521],[1.2267634,10.04063668],[1.21895546,10.04171512],[1.20240663,10.00973602],[1.1924238,10.00723565],[1.18827064,9.99885713],[1.17821996,10.00341969],[1.15601353,9.97964436],[1.14986683,10.00453108],[1.13425092,10.00229126],[1.13113084,9.99108958],[1.12436667,9.98869551],[1.10578162,9.99918969],[1.10825684,9.98252864],[1.09583135,9.93217846],[1.05730439,9.86323511],[1.04009936,9.85177994],[1.00844371,9.86010443],[1.00580292,9.87015701],[0.98645735,9.88445729],[0.96001085,9.86352995],[0.94263877,9.86644212],[0.9362153,9.86129462],[0.89898567,9.86545025],[0.88515892,9.87491006],[0.8815141,9.89010328],[0.8685917,9.89016474],[0.8566826,9.87972901],[0.8387844,9.89214074],[0.82764845,9.88317178],[0.81028687,9.88224561],[0.79361893,9.90011177],[0.77235288,9.89709822],[0.77493929,9.88281963],[0.76126483,9.87337543],[0.76112113,9.85988612],[0.74851523,9.86294617],[0.74571327,9.84579753],[0.70698205,9.86108906],[0.70120068,9.85689987],[0.68104145,9.86111212],[0.67624862,9.87092024],[0.68141224,9.89653476],[0.67429919,9.89973148],[0.66184772,9.88947197],[0.65720112,9.95451331],[0.67574408,9.98079565],[0.69613883,9.98922515],[0.69618739,10.02480315],[0.68476047,10.02858742],[0.69014898,10.07131163],[0.74558049,10.1520777],[0.73829903,10.16378705],[0.74971182,10.16213123],[0.7596636,10.17819297],[0.78301657,10.17059667],[0.78857031,10.18181298],[0.80152894,10.1738013],[0.81007845,10.15777411],[0.84475832,10.17170202],[0.84796718,10.18131602],[0.85864899,10.18460367],[0.87760622,10.23172998],[0.92133909,10.27623308],[1.08940975,10.15112356]]]}},{"type":"Feature","id":"Kozah","properties":{"prefecture":"Kozah","region":"Kara"},"geometry":{"type":"Polygon","coordinates":[[[1.17569713,9.40220719],[1.10094977,9.37527853],[1.08562201,9.37536482],[1.03142847,9.42162642],[0.96896967,9.43150361],[0.97325026,9.46242952],[0.98692458,9.47785832],[0.9845194,9.52141441],[0.99343683,9.53546071],[0.9913089,9.55028331],[1.0115022,9.59763836],[1.00099297,9.60592877],[0.98965184,9.60394791],[0.9672107,9.61340825],[0.94705108,9.63255446],[0.93128134,9.62242697],[0.91717696,9.64277122],[0.92017059,9.64738979],[0.94668719,9.64156889],[0.9583443,9.64646158],[0.98178465,9.6363635],[1.00657826,9.64939419],[1.03162945,9.65092594],[1.05514867,9.66821107],[1.06381836,9.6583273],[1.07240635,9.66641404],[1.07821347,9.65987927],[1.08696501,9.66118623],[1.12324013,9.6945681],[1.14475224,9.69436861],[1.14998438,9.71346592],[1.16829048,9.73141088],[1.17262662,9.74413186],[1.19159821,9.75638705],[1.22671847,9.71370188],[1.29565273,9.67736767],[1.28839264,9.64649104],[1.29491668,9.61909386],[1.27441079,9.59882153],[1.27390368,9.58521821],[1.26317405,9.56060786],[1.25459992,9.55454247],[1.25174046,9.53645553],[1.26407874,9.52458587],[1.27177849,9.53185369],[1.27793475,9.52071652],[1.28936549,9.52546711],[1.31309321,9.5179449],[1.32620293,9.4936614],[1.34024917,9.4858565],[1.34447459,9.4892794],[1.36202197,9.48236094],[1.36856983,9.49242397],[1.37819116,9.4893588],[1.38712247,9.49919727],[1.40009507,9.42405866],[1.37030462,9.43965523],[1.36423732,9.46068103],[1.33134859,9.46218533],[1.30977069,9.44217817],[1.27190479,9.43547795],[1.22912375,9.44040346],[1.20937451,9.43605648],[1.17569713,9.40220719]]]}},{"type":"Feature","id":"Cinkass\u00e9","properties":{"prefecture":"Cinkass\u00e9","region":"Savanes"},"geometry":{"type":"Polygon","coordinates":[[[0.18926704,11.03917336],[0.20700969,11.03711515],[0.21468611,11.02087943],[0.2077114,11.01115402],[0.20978291,10.99685696],[0.1729136,10.97979422],[0.14625063,10.99317839],[0.13526257,10.97979869],[0.12006922,11.00064368],[0.10251723,10.99873034],[0.08606115,11.00860623],[0.03035928,11.00055456],[0.01952278,11.06298676],[-0.00035888,11.07880817],[0.00133594,11.09180716],[-0.00897234,11.10725151],[-0.02778979,11.11078896],[-0.04554786,11.10008299],[-0.05432101,11.08553261],[-0.08107746,11.08376383],[-0.09729374,11.08650382],[-0.12567563,11.10506259],[-0.14252074,11.10479905],[-0.14430332,11.11801322],[-0.13520956,11.12822791],[-0.13564567,11.13769218],[0.17813274,11.07679203],[0.17493434,11.05292196],[0.18926704,11.03917336]]]}},{"type":"Feature","id":"Kpendjal","properties":{"prefecture":"Kpendjal","region":"Savanes"},"geometry":{"type":"Polygon","coordinates":[[[0.87378021,10.80503577],[0.80657931,10.72922546],[0.77357496,10.73208619],[0.65421439,10.7188406],[0.55694843,10.68477037],[0.51994158,10.69390893],[0.53626122,10.73652575],[0.5352357,10.78339916],[0.51852402,10.84997333],[0.58880515,10.90696462],[0.56831034,10.93718865],[0.56563839,10.9603209],[0.66407557,10.99994232],[0.91380548,10.99988841],[0.88801239,10.91111978],[0.89959714,10.88521198],[0.88080125,10.85418995],[0.87378021,10.80503577]]]}},{"type":"Feature","id":"Kpendjal-Ouest","properties":{"prefecture":"Kpendjal-Ouest","region":"Savanes"},"geometry":{"type":"Polygon","coordinates":[[[0.34129721,10.83521848],[0.36070053,10.83511749],[0.38923172,10.82176862],[0.40345894,10.82832616],[0.36716199,10.87378419],[0.36772943,10.88494309],[0.40276637,10.91680761],[0.40384841,10.95144152],[0.41448545,10.96847527],[0.41196346,10.98955744],[0.42415565,11.02502189],[0.50383186,11.00833233],[0.49718187,10.98862015],[0.50777448,10.9905679],[0.51690667,10.97121814],[0.50100307,10.93428354],[0.56563839,10.9603209],[0.56831034,10.93718865],[0.58880515,10.90696462],[0.51852402,10.84997333],[0.5352357,10.78339916],[0.53626122,10.73652575],[0.51994158,10.69390893],[0.49062785,10.70073697],[0.42761269,10.68882643],[0.38174792,10.69085395],[0.35693827,10.70073637],[0.34079584,10.69216189],[0.33056874,10.69554398],[0.32360348,10.70379879],[0.32451534,10.71842307],[0.35031208,10.75746657],[0.35007981,10.78214855],[0.34267932,10.78396521],[0.31685395,10.76355353],[0.30777675,10.77749848],[0.32503805,10.81920967],[0.34129721,10.83521848]]]}},{"type":"Feature","id":"Oti","properties":{"prefecture":"Oti","region":"Savanes"},"geometry":{"type":"Polygon","coordinates":[[[0.3524299,10.10916044],[0.36246,10.14122706],[0.35066338,10.18766355],[0.36163936,10.26225828],[0.38174109,10.27294425],[0.36967765,10.28501799],[0.3976605,10.30771174],[0.38941825,10.31540122],[0.31889775,10.30808078],[0.32298505,10.31976752],[0.33801728,10.32528004],[0.3333443,10.33683226],[0.31530593,10.33774728],[0.31404868,10.35968976],[0.3070731,10.37122638],[0.28994965,10.37637553],[0.30062925,10.39232014],[0.2980587,10.40944616],[0.2900284,10.40879072],[0.28411357,10.42209846],[0.27216106,10.42030933],[0.26799139,10.40946721],[0.25102353,10.40897521],[0.24362746,10.41582657],[0.23410372,10.41335725],[0.22022555,10.42547721],[0.22069802,10.4575537],[0.24518312,10.53624465],[0.27651564,10.59379224],[0.31232223,10.60303885],[0.34131485,10.62453369],[0.35237727,10.66457215],[0.34061307,10.68833355],[0.34575609,10.69910337],[0.42761269,10.68882643],[0.49062785,10.70073697],[0.55310873,10.68433829],[0.5795319,10.69353009],[0.57964904,10.6655559],[0.59637411,10.62886381],[0.60016227,10.55600122],[0.53483538,10.46316328],[0.5612839,10.42874059],[0.58651837,10.31372671],[0.55851133,10.26586215],[0.45977636,10.20677717],[0.42627842,10.19465651],[0.40749357,10.14531096],[0.3524299,10.10916044]]]}},{"type":"Feature","id":"Oti-Sud","properties":{"prefecture":"Oti-Sud","region":"Savanes"},"geometry":{"type":"Polygon","coordinates":[[[0.67574408,9.98079565],[0.65720112,9.95451331],[0.66184772,9.88947197],[0.65262376,9.88850694],[0.64506897,9.90184232],[0.62592723,9.89391095],[0.62153492,9.88509382],[0.60602997,9.89474443],[0.56642774,9.88733183],[0.55596599,9.89160579],[0.53770088,9.917303],[0.51574391,9.92292567],[0.53640869,9.95275286],[0.48658647,9.9578708],[0.46913352,9.95112359],[0.45251848,9.95762548],[0.45337156,9.9690974],[0.43030316,9.96947953],[0.43306311,9.9975915],[0.42632167,10.0101345],[0.4324167,10.01271689],[0.42705624,10.02789284],[0.41172766,10.02481747],[0.41649697,10.06130562],[0.395085,10.08110874],[0.3569243,10.09037126],[0.35260019,10.10749621],[0.40749357,10.14531096],[0.42627842,10.19465651],[0.45977636,10.20677717],[0.55851133,10.26586215],[0.58651837,10.31372671],[0.5612839,10.42874059],[0.53483538,10.46316328],[0.60016227,10.55600122],[0.59637411,10.62886381],[0.57964904,10.6655559],[0.5795319,10.69353009],[0.66937436,10.72135985],[0.77357496,10.73208619],[0.80657597,10.72920917],[0.79731681,10.67713309],[0.80881788,10.57978092],[0.7839042,10.52647341],[0.77655989,10.38181719],[0.92134108,10.27623505],[0.87760622,10.23172998],[0.85864899,10.18460367],[0.84796718,10.18131602],[0.84475832,10.17170202],[0.81007845,10.15777411],[0.80152894,10.1738013],[0.78857031,10.18181298],[0.78301657,10.17059667],[0.7596636,10.17819297],[0.74971182,10.16213123],[0.73829903,10.16378705],[0.74558049,10.1520777],[0.69014898,10.07131163],[0.68476047,10.02858742],[0.69618739,10.02480315],[0.69613883,9.98922515],[0.67574408,9.98079565]]]}},{"type":"Feature","id":"Tandjoar\u00e9","properties":{"prefecture":"Tandjoar\u00e9","region":"Savanes"},"geometry":{"type":"Polygon","coordinates":[[[0.0543324,10.58509469],[0.04611087,10.5919455],[0.00366642,10.60056114],[-0.00273178,10.61452456],[-0.01432475,10.62005298],[-0.05881088,10.63116574],[-0.08999878,10.71304458],[-0.07277815,10.72009671],[-0.07200264,10.76236518],[-0.02853549,10.78236527],[0.01942905,10.77665698],[0.03116801,10.75822427],[0.05268196,10.75609051],[0.06199688,10.76405358],[0.06559663,10.80000367],[0.07912163,10.81064182],[0.09143449,10.80963381],[0.09875723,10.80133932],[0.14290525,10.79598728],[0.16585624,10.77890031],[0.20688208,10.77302973],[0.21220565,10.75007437],[0.22402893,10.73884242],[0.23277617,10.73900131],[0.22466342,10.72515859],[0.24061865,10.71698594],[0.23628941,10.6980508],[0.25715898,10.68143767],[0.27296691,10.67784476],[0.28784793,10.69744938],[0.31653408,10.68001051],[0.33077322,10.66359181],[0.3299448,10.64604273],[0.34341171,10.62802392],[0.31232223,10.60303885],[0.27651564,10.59379224],[0.24518312,10.53624465],[0.22069802,10.4575537],[0.22021353,10.42547347],[0.21082474,10.42160347],[0.21196825,10.41642294],[0.20556739,10.41820855],[0.20604865,10.40402239],[0.19067947,10.40450069],[0.19057653,10.41782357],[0.16915913,10.43024566],[0.16643534,10.44120696],[0.17207366,10.45056389],[0.15420527,10.46435751],[0.15877551,10.47365084],[0.14313877,10.52552691],[0.06082578,10.55658334],[0.0543324,10.58509469]]]}},{"type":"Feature","id":"T\u00f4ne","properties":{"prefecture":"T\u00f4ne","region":"Savanes"},"geometry":{"type":"Polygon","coordinates":[[[0.01942905,10.77665698],[-0.02661702,10.78266003],[-0.05734824,10.76636299],[-0.07068678,10.76324464],[-0.07330898,10.76925439],[-0.02216582,10.81895114],[-0.02983671,10.8544086],[-0.02552394,10.8811549],[-0.00775978,10.91461537],[-0.01185972,10.94432271],[-0.00295316,10.96326099],[0.03299826,10.97505723],[0.03020419,11.00065971],[0.08606115,11.00860623],[0.10251723,10.99873034],[0.12006922,11.00064368],[0.13526257,10.97979869],[0.14625063,10.99317839],[0.1729136,10.97979422],[0.20978291,10.99685696],[0.2077114,11.01115402],[0.21468611,11.02087943],[0.20700969,11.03711515],[0.18926704,11.03917336],[0.17493434,11.05292196],[0.17813037,11.07680781],[0.42419084,11.02512179],[0.41196346,10.98955744],[0.41448545,10.96847527],[0.40384841,10.95144152],[0.40276637,10.91680761],[0.36772943,10.88494309],[0.36716199,10.87378419],[0.40345894,10.82832616],[0.38923172,10.82176862],[0.36070053,10.83511749],[0.34129721,10.83521848],[0.32503805,10.81920967],[0.30777675,10.77749848],[0.31685395,10.76355353],[0.34267932,10.78396521],[0.35007981,10.78214855],[0.35031208,10.75746657],[0.32596358,10.72201217],[0.32317438,10.70637009],[0.34079584,10.69216189],[0.35155749,10.66808682],[0.34341171,10.62802392],[0.3299448,10.64604273],[0.33077322,10.66359181],[0.31653408,10.68001051],[0.28784793,10.69744938],[0.27296691,10.67784476],[0.25715898,10.68143767],[0.23628941,10.6980508],[0.24061865,10.71698594],[0.22466342,10.72515859],[0.23277617,10.73900131],[0.22402893,10.73884242],[0.21220565,10.75007437],[0.20688208,10.77302973],[0.16585624,10.77890031],[0.14290525,10.79598728],[0.09875723,10.80133932],[0.08367512,10.81088117],[0.0675139,10.80343431],[0.06199688,10.76405358],[0.04915426,10.75480035],[0.03116801,10.75822427],[0.01942905,10.77665698]]]}}]}